NORAD_CAT_ID,OBJECT_NAME,OBJECT_TYPE,EPOCH,MEAN_MOTION,ECCENTRICITY,INCLINATION,RA_OF_ASC_NODE,ARG_OF_PERICENTER,MEAN_ANOMALY,BSTAR,MEAN_MOTION_DOT,MEAN_MOTION_DDOT,TLE_LINE0,TLE_LINE1,TLE_LINE2,SEMIMAJOR_AXIS,PERIOD,APOGEE,PERIGEE,DECAYED
53144.0,STARLINK-4100,PAYLOAD,2024-02-15 21:36:37,15.08814672,0.0001373,53.2173,313.5347,88.4532,271.6617,-0.00015015,-2.675e-05,0.0,0 STARLINK-4100,1 53144U 22083N   24046.90043497 -.00002675  00000-0 -15015-3 0  9991,2 53144  53.2173 313.5347 0001373  88.4532 271.6617 15.08814672 87579,6917.958,95.439,540.773,538.873,0.0
53144.0,STARLINK-4100,PAYLOAD,2024-02-16 00:47:23,15.08820074,0.0001395,53.2193,312.945,109.6787,250.4356,-8.4873e-05,-1.638e-05,0.0,0 STARLINK-4100,1 53144U 22083N   24047.03291124 -.00001638  00000-0 -84873-4 0  9995,2 53144  53.2193 312.9450 0001395 109.6787 250.4356 15.08820074 88222,6917.941,95.439,540.771,538.841,0.0
53144.0,STARLINK-4100,PAYLOAD,2024-02-16 10:19:41,15.08835122,0.0001294,53.2191,311.1572,100.0604,260.0535,-8.833e-05,-1.693e-05,0.0,0 STARLINK-4100,1 53144U 22083N   24047.43034328 -.00001693  00000-0 -88330-4 0  9993,2 53144  53.2191 311.1572 0001294 100.0604 260.0535 15.08835122 88289,6917.895,95.438,540.655,538.865,0.0
53144.0,STARLINK-4100,PAYLOAD,2024-02-16 21:27:22,15.08865851,0.000105,53.2174,309.0761,90.4988,269.6124,-0.000236,-4.044e-05,0.0,0 STARLINK-4100,1 53144U 22083N   24047.89400786 -.00004044  00000-0 -23600-3 0  9999,2 53144  53.2174 309.0761 0001050  90.4988 269.6124 15.08865851 87722,6917.801,95.436,540.393,538.94,0.0
53144.0,STARLINK-4100,PAYLOAD,2024-02-17 02:13:32,15.08851667,0.000128,53.2171,308.1842,102.007,258.1065,0.00049648,7.625e-05,0.0,0 STARLINK-4100,1 53144U 22083N   24048.09273570  .00007625  00000-0  49648-3 0  9997,2 53144  53.2171 308.1842 0001280 102.0070 258.1065 15.08851667 88386,6917.845,95.437,540.595,538.824,0.0
53144.0,STARLINK-4100,PAYLOAD,2024-02-17 10:10:28,15.08848123,0.0001161,53.2161,306.6961,79.8071,280.3052,0.00050193,7.711e-05,0.0,0 STARLINK-4100,1 53144U 22083N   24048.42394066  .00007711  00000-0  50193-3 0  9991,2 53144  53.2161 306.6961 0001161  79.8071 280.3052 15.08848123 88432,6917.856,95.437,540.524,538.917,0.0
53144.0,STARLINK-4100,PAYLOAD,2024-02-17 22:53:33,15.08846325,0.000117,53.2163,304.3176,83.1026,277.0099,0.00026957,4.006e-05,0.0,0 STARLINK-4100,1 53144U 22083N   24048.95386055  .00004006  00000-0  26957-3 0  9993,2 53144  53.2163 304.3176 0001170  83.1026 277.0099 15.08846325 87889,6917.861,95.437,540.535,538.917,0.0
53144.0,STARLINK-4100,PAYLOAD,2024-02-18 10:01:15,15.08848622,0.0001091,53.2156,302.236,79.1639,280.9476,0.0011105,0.00017434,0.0,0 STARLINK-4100,1 53144U 22083N   24049.41754148  .00017434  00000-0  11105-2 0  9994,2 53144  53.2156 302.2360 0001091  79.1639 280.9476 15.08848622 87952,6917.854,95.437,540.474,538.964,0.0
53144.0,STARLINK-4100,PAYLOAD,2024-02-18 16:22:48,15.08843871,0.0001288,53.2154,301.0477,82.4954,277.6184,0.00052817,8.129e-05,0.0,0 STARLINK-4100,1 53144U 22083N   24049.68250193  .00008129  00000-0  52817-3 0  9991,2 53144  53.2154 301.0477 0001288  82.4954 277.6184 15.08843871 88626,6917.869,95.437,540.625,538.843,0.0
53144.0,STARLINK-4100,PAYLOAD,2024-02-18 22:44:20,15.08841163,0.0001191,53.2153,299.8579,80.9902,279.1225,0.00032092,4.823e-05,0.0,0 STARLINK-4100,1 53144U 22083N   24049.94746292  .00004823  00000-0  32092-3 0  9990,2 53144  53.2153 299.8579 0001191  80.9902 279.1225 15.08841163 88031,6917.877,95.437,540.566,538.918,0.0
53144.0,STARLINK-4100,PAYLOAD,2024-02-19 09:52:02,15.08843564,0.0001177,53.2156,297.7743,91.5143,268.5984,0.00031941,4.8e-05,0.0,0 STARLINK-4100,1 53144U 22083N   24050.41114144  .00004800  00000-0  31941-3 0  9996,2 53144  53.2156 297.7743 0001177  91.5143 268.5984 15.08843564 88731,6917.869,95.437,540.549,538.92,0.0
53144.0,STARLINK-4100,PAYLOAD,2024-02-19 22:35:07,15.08837776,0.0001265,53.2161,295.3936,104.7092,255.404,8.9386e-05,1.135e-05,0.0,0 STARLINK-4100,1 53144U 22083N   24050.94106297  .00001135  00000-0  89386-4 0  9999,2 53144  53.2161 295.3936 0001265 104.7092 255.4040 15.08837776 88188,6917.887,95.438,540.627,538.877,0.0
53144.0,STARLINK-4100,PAYLOAD,2024-02-20 09:42:49,15.08837011,0.0001393,53.2155,293.3106,104.2363,255.8784,7.8339e-05,9.59e-06,0.0,0 STARLINK-4100,1 53144U 22083N   24051.40474522  .00000959  00000-0  78339-4 0  9999,2 53144  53.2155 293.3106 0001393 104.2363 255.8784 15.08837011 88884,6917.89,95.438,540.718,538.791,0.0
53144.0,STARLINK-4100,PAYLOAD,2024-02-20 22:25:55,15.08835094,0.0001462,53.2157,290.932,103.8682,256.2473,-1.8291e-05,-5.79e-06,0.0,0 STARLINK-4100,1 53144U 22083N   24051.93466860 -.00000579  00000-0 -18291-4 0  9994,2 53144  53.2157 290.9320 0001462 103.8682 256.2473 15.08835094 88332,6917.895,95.438,540.772,538.749,0.0
53144.0,STARLINK-4100,PAYLOAD,2024-02-21 01:36:41,15.08838657,0.0001474,53.2161,290.3367,105.9855,254.13,-6.7516e-06,-3.95e-06,0.0,0 STARLINK-4100,1 53144U 22083N   24052.06714798 -.00000395  00000-0 -67516-5 0  9996,2 53144  53.2161 290.3367 0001474 105.9855 254.1300 15.08838657 88356,6917.884,95.438,540.769,538.73,0.0
53144.0,STARLINK-4100,PAYLOAD,2024-02-21 19:05:55,15.08847726,0.0001546,53.2163,287.0653,111.1538,248.9619,0.00022452,3.288e-05,0.0,0 STARLINK-4100,1 53144U 22083N   24052.79578289  .00003288  00000-0  22452-3 0  9999,2 53144  53.2163 287.0653 0001546 111.1538 248.9619 15.08847726 89099,6917.857,95.437,540.791,538.652,0.0
53144.0,STARLINK-4100,PAYLOAD,2024-02-21 22:16:41,15.08850255,0.0001329,53.2157,286.4748,94.9352,265.1792,0.00030595,4.586e-05,0.0,0 STARLINK-4100,1 53144U 22083N   24052.92826229  .00004586  00000-0  30595-3 0  9993,2 53144  53.2157 286.4748 0001329  94.9352 265.1792 15.08850255 88487,6917.849,95.437,540.633,538.795,0.0
53144.0,STARLINK-4100,PAYLOAD,2024-02-22 18:56:42,15.08841316,0.000141,53.2152,282.6082,92.8689,267.2464,0.00013225,1.818e-05,0.0,0 STARLINK-4100,1 53144U 22083N   24053.78938479  .00001818  00000-0  13225-3 0  9995,2 53144  53.2152 282.6082 0001410  92.8689 267.2464 15.08841316 89244,6917.876,95.437,540.717,538.766,0.0
53144.0,STARLINK-4100,PAYLOAD,2024-02-22 22:07:28,15.08847054,0.0001336,53.2156,282.0118,96.3525,263.762,0.00020121,2.916e-05,0.0,0 STARLINK-4100,1 53144U 22083N   24053.92186132  .00002916  00000-0  20121-3 0  9995,2 53144  53.2156 282.0118 0001336  96.3525 263.7620 15.08847054 88639,6917.859,95.437,540.648,538.8,0.0
53144.0,STARLINK-4100,PAYLOAD,2024-02-23 07:39:47,15.08844059,0.0001319,53.2153,280.2288,85.2153,274.899,4.3473e-05,4.04e-06,0.0,0 STARLINK-4100,1 53144U 22083N   24054.31930162  .00000404  00000-0  43473-4 0  9995,2 53144  53.2153 280.2288 0001319  85.2153 274.8990 15.08844059 88690,6917.868,95.437,540.645,538.821,0.0
53144.0,STARLINK-4100,PAYLOAD,2024-02-23 20:22:53,15.08838523,0.0001449,53.2172,277.8552,105.7455,254.3697,-4.532e-05,-1.009e-05,0.0,0 STARLINK-4100,1 53144U 22083N   24054.84923056 -.00001009  00000-0 -45320-4 0  9994,2 53144  53.2172 277.8552 0001449 105.7455 254.3697 15.08838523 89400,6917.885,95.438,540.752,538.748,0.0
53144.0,STARLINK-4100,PAYLOAD,2024-02-23 21:58:16,15.08837183,0.0001432,53.217,277.5567,104.983,255.1321,-7.9717e-05,-1.556e-05,0.0,0 STARLINK-4100,1 53144U 22083N   24054.91547164 -.00001556  00000-0 -79717-4 0  9998,2 53144  53.2170 277.5567 0001432 104.9830 255.1321 15.08837183 88785,6917.889,95.438,540.745,538.763,0.0
53144.0,STARLINK-4100,PAYLOAD,2024-02-24 07:30:35,15.08842922,0.0001468,53.2175,275.7718,101.6996,258.4161,-6.3165e-05,-1.293e-05,0.0,0 STARLINK-4100,1 53144U 22083N   24055.31290796 -.00001293  00000-0 -63165-4 0  9997,2 53144  53.2175 275.7718 0001468 101.6996 258.4161 15.08842922 88846,6917.871,95.437,540.752,538.721,0.0
53144.0,STARLINK-4100,PAYLOAD,2024-02-24 15:27:31,15.08779019,0.0001858,53.2171,274.2848,104.6299,255.4899,0.00092927,0.00014508,0.0,0 STARLINK-4100,1 53144U 22083N   24055.64411428  .00014508  00000-0  92927-3 0  9998,2 53144  53.2171 274.2848 0001858 104.6299 255.4899 15.08779019 89529,6918.067,95.441,541.217,538.646,0.0
53144.0,STARLINK-4100,PAYLOAD,2024-02-25 00:59:49,15.08846858,0.0001363,53.2164,272.4986,96.7,263.4148,7.1302e-05,8.47e-06,0.0,0 STARLINK-4100,1 53144U 22083N   24056.04154326  .00000847  00000-0  71302-4 0  9990,2 53144  53.2164 272.4986 0001363  96.7000 263.4148 15.08846858 89584,6917.859,95.437,540.667,538.782,0.0
53144.0,STARLINK-4100,PAYLOAD,2024-02-25 07:21:22,15.08844267,0.000134,53.2161,271.3085,95.641,264.4735,4.7279e-05,4.65e-06,0.0,0 STARLINK-4100,1 53144U 22083N   24056.30650516  .00000465  00000-0  47279-4 0  9993,2 53144  53.2161 271.3085 0001340  95.6410 264.4735 15.08844267 88996,6917.867,95.437,540.659,538.805,0.0
53144.0,STARLINK-4100,PAYLOAD,2024-02-25 21:39:49,15.0884859,0.0001311,53.216,268.6314,93.3826,266.7317,0.00023074,3.387e-05,0.0,0 STARLINK-4100,1 53144U 22083N   24056.90266072  .00003387  00000-0  23074-3 0  9991,2 53144  53.2160 268.6314 0001311  93.3826 266.7317 15.08848590 89088,6917.854,95.437,540.626,538.812,0.0
53144.0,STARLINK-4100,PAYLOAD,2024-02-26 13:33:42,15.08832591,0.0001416,53.2159,265.6569,89.9368,270.1787,-2.336e-05,-6.6e-06,0.0,0 STARLINK-4100,1 53144U 22083N   24057.56507275 -.00000660  00000-0 -23360-4 0  9999,2 53144  53.2159 265.6569 0001416  89.9368 270.1787 15.08832591 89188,6917.903,95.438,540.748,538.788,0.0
53144.0,STARLINK-4100,PAYLOAD,2024-02-26 19:55:14,15.0883419,0.0001351,53.2145,264.4671,95.8231,264.2915,-2.6488e-05,-7.09e-06,0.0,0 STARLINK-4100,1 53144U 22083N   24057.83003091 -.00000709  00000-0 -26488-4 0  9994,2 53144  53.2145 264.4671 0001351  95.8231 264.2915 15.08834190 89855,6917.898,95.438,540.698,538.829,0.0
53144.0,STARLINK-4100,PAYLOAD,2024-02-26 21:30:37,15.08834064,0.0001261,53.214,264.1695,95.0465,265.0671,-1.5787e-05,-5.39e-06,0.0,0 STARLINK-4100,1 53144U 22083N   24057.89627129 -.00000539  00000-0 -15787-4 0  9995,2 53144  53.2140 264.1695 0001261  95.0465 265.0671 15.08834064 89234,6917.899,95.438,540.636,538.891,0.0
